STARLINK-35608          
1 66508U 25263Z   26068.13895040  .00034248  00000+0  12487-2 0  9999
2 66508  43.0000 353.8938 0001155 287.9889  72.0837 15.27569338 18810
2025-313BD              
1 67299U 25313BD  26068.62968741  .00081010  00000+0  27634-2 0  9995
2 67299  97.3970 145.2850 0007287 333.4514  26.6352 15.30002360 10838
